QIANFAN-69              
1 62799U 25016Q   26032.87588796  .00000117  00000+0  16289-3 0  9995
2 62799  88.9717  97.6771 0015915 189.9683 170.1155 13.50989775 54189
QIANFAN-70              
1 62800U 25016R   26032.89237350  .00000102  00000+0  13936-3 0  9997
2 62800  88.9738  97.8248 0015855 180.3473 179.7670 13.50993502 54147
QIANFAN-71              
1 62801U 25016S   26032.88818337  .00000107  00000+0  14661-3 0  9998
2 62801  88.9732  97.8016 0015703 193.4038 166.6698 13.50992918 54144
QIANFAN-72              
1 62802U 25016T   26032.90463369  .00000121  00000+0  16904-3 0  9991
2 62802  88.9722  97.8083 0018693 201.8666 158.1689 13.50992807 54132
QIANFAN-73              
1 63159U 25046A   26032.93169839  .00000196  00000+0  28501-3 0  9996
2 63159  88.9796 314.7353 0014951 343.4821  16.5841 13.50997868 54329
QIANFAN-74              
1 63160U 25046B   26032.91522409  .00000214  00000+0  31215-3 0  9999
2 63160  88.9796 314.6258 0001800  70.4760 289.6586 13.50995321 54389
QIANFAN-75              
1 63161U 25046C   26032.90235683  .00000196  00000+0  28561-3 0  9993
2 63161  88.9797 314.8614 0016275 346.0499  14.0201 13.50994321 54251
QIANFAN-76              
1 63162U 25046D   26032.89894384  .00000183  00000+0  26455-3 0  9997
2 63162  88.9796 314.8420 0013863 347.8822  12.1994 13.51000714 54269
QIANFAN-77              
1 63163U 25046E   26032.85937244  .00000449  00000+0  31715-3 0  9997
2 63163  88.9794 312.4340 0013013 285.8544  74.1197 13.96146791 55586
QIANFAN-78              
1 63164U 25046F   26032.93987022  .00000190  00000+0  27637-3 0  9997
2 63164  88.9795 314.7014 0015289 349.3353  10.7471 13.50991856 54346
QIANFAN-79              
1 63165U 25046G   26032.89461768  .00000096  00000+0  13066-3 0  9993
2 63165  88.9799 314.8156 0014983 348.3886  11.6917 13.50967275 54285
QIANFAN-80              
1 63166U 25046H   26032.91101367  .00000110  00000+0  15210-3 0  9993
2 63166  88.9796 314.5194 0014060 352.5815   7.5126 13.50990066 54445
QIANFAN-81              
1 63167U 25046J   26032.88874914  .00000214  00000+0  31358-3 0  9991
2 63167  88.9796 314.5895 0014728 341.5274  18.5341 13.50972112 54399
QIANFAN-82              
1 63168U 25046K   26032.92347486  .00000214  00000+0  31297-3 0  9998
2 63168  88.9796 314.6300 0013091 349.3465  10.7407 13.50999324 54382
QIANFAN-83              
1 63169U 25046L   26032.90482915  .00000255  00000+0  31489-3 0  9992
2 63169  88.9797 314.3079 0013715 331.3043  28.7358 13.62004100 54566
QIANFAN-84              
1 63170U 25046M   26032.87682989  .00000169  00000+0  24257-3 0  9992
2 63170  88.9796 314.7671 0015920 344.4512  15.6148 13.51007793 54308
QIANFAN-85              
1 63171U 25046N   26032.87401316  .00000184  00000+0  26588-3 0  9992
2 63171  88.9796 314.6391 0013422 348.2267  11.8569 13.50989969 54376
