[{"OBJECT_NAME":"QIANFAN-69","OBJECT_ID":"2025-016Q","EPOCH":"2026-02-01T21:01:16.719744","MEAN_MOTION":13.50989775,"ECCENTRICITY":0.00159151,"INCLINATION":88.9717,"RA_OF_ASC_NODE":97.6771,"ARG_OF_PERICENTER":189.9683,"MEAN_ANOMALY":170.1155,"EPHEMERIS_TYPE":0,"CLASSIFICATION_TYPE":"U","NORAD_CAT_ID":62799,"ELEMENT_SET_NO":999,"REV_AT_EPOCH":5418,"BSTAR":0.00016288836,"MEAN_MOTION_DOT":1.17e-6,"MEAN_MOTION_DDOT":0},{"OBJECT_NAME":"QIANFAN-70","OBJECT_ID":"2025-016R","EPOCH":"2026-02-01T21:25:01.070400","MEAN_MOTION":13.50993502,"ECCENTRICITY":0.00158553,"INCLINATION":88.9738,"RA_OF_ASC_NODE":97.8248,"ARG_OF_PERICENTER":180.3473,"MEAN_ANOMALY":179.767,"EPHEMERIS_TYPE":0,"CLASSIFICATION_TYPE":"U","NORAD_CAT_ID":62800,"ELEMENT_SET_NO":999,"REV_AT_EPOCH":5414,"BSTAR":0.00013936478,"MEAN_MOTION_DOT":1.02e-6,"MEAN_MOTION_DDOT":0},{"OBJECT_NAME":"QIANFAN-71","OBJECT_ID":"2025-016S","EPOCH":"2026-02-01T21:18:59.043168","MEAN_MOTION":13.50992918,"ECCENTRICITY":0.0015703,"INCLINATION":88.9732,"RA_OF_ASC_NODE":97.8016,"ARG_OF_PERICENTER":193.4038,"MEAN_ANOMALY":166.6698,"EPHEMERIS_TYPE":0,"CLASSIFICATION_TYPE":"U","NORAD_CAT_ID":62801,"ELEMENT_SET_NO":999,"REV_AT_EPOCH":5414,"BSTAR":0.00014660585,"MEAN_MOTION_DOT":1.07e-6,"MEAN_MOTION_DDOT":0},{"OBJECT_NAME":"QIANFAN-72","OBJECT_ID":"2025-016T","EPOCH":"2026-02-01T21:42:40.350816","MEAN_MOTION":13.50992807,"ECCENTRICITY":0.00186936,"INCLINATION":88.9722,"RA_OF_ASC_NODE":97.8083,"ARG_OF_PERICENTER":201.8666,"MEAN_ANOMALY":158.1689,"EPHEMERIS_TYPE":0,"CLASSIFICATION_TYPE":"U","NORAD_CAT_ID":62802,"ELEMENT_SET_NO":999,"REV_AT_EPOCH":5413,"BSTAR":0.00016903755,"MEAN_MOTION_DOT":1.21e-6,"MEAN_MOTION_DDOT":0},{"OBJECT_NAME":"QIANFAN-73","OBJECT_ID":"2025-046A","EPOCH":"2026-02-01T22:21:38.740896","MEAN_MOTION":13.50997868,"ECCENTRICITY":0.00149515,"INCLINATION":88.9796,"RA_OF_ASC_NODE":314.7353,"ARG_OF_PERICENTER":343.4821,"MEAN_ANOMALY":16.5841,"EPHEMERIS_TYPE":0,"CLASSIFICATION_TYPE":"U","NORAD_CAT_ID":63159,"ELEMENT_SET_NO":999,"REV_AT_EPOCH":5432,"BSTAR":0.00028501252,"MEAN_MOTION_DOT":1.96e-6,"MEAN_MOTION_DDOT":0},{"OBJECT_NAME":"QIANFAN-74","OBJECT_ID":"2025-046B","EPOCH":"2026-02-01T21:57:55.361376","MEAN_MOTION":13.50995321,"ECCENTRICITY":0.00018007,"INCLINATION":88.9796,"RA_OF_ASC_NODE":314.6258,"ARG_OF_PERICENTER":70.476,"MEAN_ANOMALY":289.6586,"EPHEMERIS_TYPE":0,"CLASSIFICATION_TYPE":"U","NORAD_CAT_ID":63160,"ELEMENT_SET_NO":999,"REV_AT_EPOCH":5438,"BSTAR":0.00031215443,"MEAN_MOTION_DOT":2.14e-6,"MEAN_MOTION_DDOT":0},{"OBJECT_NAME":"QIANFAN-75","OBJECT_ID":"2025-046C","EPOCH":"2026-02-01T21:39:23.630112","MEAN_MOTION":13.50994321,"ECCENTRICITY":0.00162753,"INCLINATION":88.9797,"RA_OF_ASC_NODE":314.8614,"ARG_OF_PERICENTER":346.0499,"MEAN_ANOMALY":14.0201,"EPHEMERIS_TYPE":0,"CLASSIFICATION_TYPE":"U","NORAD_CAT_ID":63161,"ELEMENT_SET_NO":999,"REV_AT_EPOCH":5425,"BSTAR":0.00028560957,"MEAN_MOTION_DOT":1.96e-6,"MEAN_MOTION_DDOT":0},{"OBJECT_NAME":"QIANFAN-76","OBJECT_ID":"2025-046D","EPOCH":"2026-02-01T21:34:28.747776","MEAN_MOTION":13.51000714,"ECCENTRICITY":0.0013863,"INCLINATION":88.9796,"RA_OF_ASC_NODE":314.842,"ARG_OF_PERICENTER":347.8822,"MEAN_ANOMALY":12.1994,"EPHEMERIS_TYPE":0,"CLASSIFICATION_TYPE":"U","NORAD_CAT_ID":63162,"ELEMENT_SET_NO":999,"REV_AT_EPOCH":5426,"BSTAR":0.00026454556,"MEAN_MOTION_DOT":1.83e-6,"MEAN_MOTION_DDOT":0},{"OBJECT_NAME":"QIANFAN-77","OBJECT_ID":"2025-046E","EPOCH":"2026-02-01T20:37:29.778816","MEAN_MOTION":13.96146791,"ECCENTRICITY":0.00130138,"INCLINATION":88.9794,"RA_OF_ASC_NODE":312.434,"ARG_OF_PERICENTER":285.8544,"MEAN_ANOMALY":74.1197,"EPHEMERIS_TYPE":0,"CLASSIFICATION_TYPE":"U","NORAD_CAT_ID":63163,"ELEMENT_SET_NO":999,"REV_AT_EPOCH":5558,"BSTAR":0.00031715374,"MEAN_MOTION_DOT":4.49e-6,"MEAN_MOTION_DDOT":0},{"OBJECT_NAME":"QIANFAN-78","OBJECT_ID":"2025-046F","EPOCH":"2026-02-01T22:33:24.787008","MEAN_MOTION":13.50991856,"ECCENTRICITY":0.00152891,"INCLINATION":88.9795,"RA_OF_ASC_NODE":314.7014,"ARG_OF_PERICENTER":349.3353,"MEAN_ANOMALY":10.7471,"EPHEMERIS_TYPE":0,"CLASSIFICATION_TYPE":"U","NORAD_CAT_ID":63164,"ELEMENT_SET_NO":999,"REV_AT_EPOCH":5434,"BSTAR":0.00027637087,"MEAN_MOTION_DOT":1.9e-6,"MEAN_MOTION_DDOT":0},{"OBJECT_NAME":"QIANFAN-79","OBJECT_ID":"2025-046G","EPOCH":"2026-02-01T21:28:14.967552","MEAN_MOTION":13.50967275,"ECCENTRICITY":0.00149832,"INCLINATION":88.9799,"RA_OF_ASC_NODE":314.8156,"ARG_OF_PERICENTER":348.3886,"MEAN_ANOMALY":11.6917,"EPHEMERIS_TYPE":0,"CLASSIFICATION_TYPE":"U","NORAD_CAT_ID":63165,"ELEMENT_SET_NO":999,"REV_AT_EPOCH":5428,"BSTAR":0.00013065996,"MEAN_MOTION_DOT":9.6e-7,"MEAN_MOTION_DDOT":0},{"OBJECT_NAME":"QIANFAN-80","OBJECT_ID":"2025-046H","EPOCH":"2026-02-01T21:51:51.581088","MEAN_MOTION":13.50990066,"ECCENTRICITY":0.00140601,"INCLINATION":88.9796,"RA_OF_ASC_NODE":314.5194,"ARG_OF_PERICENTER":352.5815,"MEAN_ANOMALY":7.5126,"EPHEMERIS_TYPE":0,"CLASSIFICATION_TYPE":"U","NORAD_CAT_ID":63166,"ELEMENT_SET_NO":999,"REV_AT_EPOCH":5444,"BSTAR":0.000152099,"MEAN_MOTION_DOT":1.1e-6,"MEAN_MOTION_DDOT":0},{"OBJECT_NAME":"QIANFAN-81","OBJECT_ID":"2025-046J","EPOCH":"2026-02-01T21:19:47.925696","MEAN_MOTION":13.50972112,"ECCENTRICITY":0.00147287,"INCLINATION":88.9796,"RA_OF_ASC_NODE":314.5895,"ARG_OF_PERICENTER":341.5274,"MEAN_ANOMALY":18.5341,"EPHEMERIS_TYPE":0,"CLASSIFICATION_TYPE":"U","NORAD_CAT_ID":63167,"ELEMENT_SET_NO":999,"REV_AT_EPOCH":5439,"BSTAR":0.00031357875,"MEAN_MOTION_DOT":2.14e-6,"MEAN_MOTION_DDOT":0},{"OBJECT_NAME":"QIANFAN-82","OBJECT_ID":"2025-046K","EPOCH":"2026-02-01T22:09:48.227904","MEAN_MOTION":13.50999324,"ECCENTRICITY":0.0013091,"INCLINATION":88.9796,"RA_OF_ASC_NODE":314.63,"ARG_OF_PERICENTER":349.3465,"MEAN_ANOMALY":10.7407,"EPHEMERIS_TYPE":0,"CLASSIFICATION_TYPE":"U","NORAD_CAT_ID":63168,"ELEMENT_SET_NO":999,"REV_AT_EPOCH":5438,"BSTAR":0.00031297187,"MEAN_MOTION_DOT":2.14e-6,"MEAN_MOTION_DDOT":0},{"OBJECT_NAME":"QIANFAN-83","OBJECT_ID":"2025-046L","EPOCH":"2026-02-01T21:42:57.238560","MEAN_MOTION":13.620041,"ECCENTRICITY":0.00137152,"INCLINATION":88.9797,"RA_OF_ASC_NODE":314.3079,"ARG_OF_PERICENTER":331.3043,"MEAN_ANOMALY":28.7358,"EPHEMERIS_TYPE":0,"CLASSIFICATION_TYPE":"U","NORAD_CAT_ID":63169,"ELEMENT_SET_NO":999,"REV_AT_EPOCH":5456,"BSTAR":0.0003148885,"MEAN_MOTION_DOT":2.55e-6,"MEAN_MOTION_DDOT":0},{"OBJECT_NAME":"QIANFAN-84","OBJECT_ID":"2025-046M","EPOCH":"2026-02-01T21:02:38.102496","MEAN_MOTION":13.51007793,"ECCENTRICITY":0.00159209,"INCLINATION":88.9796,"RA_OF_ASC_NODE":314.7671,"ARG_OF_PERICENTER":344.4512,"MEAN_ANOMALY":15.6148,"EPHEMERIS_TYPE":0,"CLASSIFICATION_TYPE":"U","NORAD_CAT_ID":63170,"ELEMENT_SET_NO":999,"REV_AT_EPOCH":5430,"BSTAR":0.00024257125,"MEAN_MOTION_DOT":1.69e-6,"MEAN_MOTION_DDOT":0},{"OBJECT_NAME":"QIANFAN-85","OBJECT_ID":"2025-046N","EPOCH":"2026-02-01T20:58:34.737024","MEAN_MOTION":13.50989969,"ECCENTRICITY":0.00134228,"INCLINATION":88.9796,"RA_OF_ASC_NODE":314.6391,"ARG_OF_PERICENTER":348.2267,"MEAN_ANOMALY":11.8569,"EPHEMERIS_TYPE":0,"CLASSIFICATION_TYPE":"U","NORAD_CAT_ID":63171,"ELEMENT_SET_NO":999,"REV_AT_EPOCH":5437,"BSTAR":0.00026587895,"MEAN_MOTION_DOT":1.84e-6,"MEAN_MOTION_DDOT":0}]
